start=new Date('2022-07-17T00:00:00.000Z').valueOf();
sats=[{"OBJECT_TYPE":"PAYLOAD","EPHEMERIS_TYPE":"0","BSTAR":"0.00015556000000","APOAPSIS":"540.691","REF_FRAME":"TEME","SITE":"AFETR","INCLINATION":"53.2175","CENTER_NAME":"EARTH","EPOCH":"2022-07-16T19:27:35.789760","SEMIMAJOR_AXIS":"6917.862","GP_ID":"208272036","MEAN_ANOMALY":"296.6707","MEAN_MOTION_DOT":"0.00002189","REV_AT_EPOCH":"3432","RCS_SIZE":"LARGE","OBJECT_NAME":"STARLINK-3240","PERIAPSIS":"538.763","PERIOD":"95.437","OBJECT_ID":"2021-115E","CLASSIFICATION_TYPE":"U","MEAN_MOTION":"15.08846009","DECAY_DATE":null,"TLE_LINE1":"1 49728U 21115E   22197.81083090  .00002189  00000-0  15556-3 0  9995","NORAD_CAT_ID":"49728","ELEMENT_SET_NO":"999","MEAN_MOTION_DDOT":"0.0000000000000","FILE":"3515618","TLE_LINE2":"2 49728  53.2175  18.1611 0001393  63.4428 296.6707 15.08846009 34326","MEAN_ELEMENT_THEORY":"SGP4","TIME_SYSTEM":"UTC","LAUNCH_DATE":"2021-12-02","COUNTRY_CODE":"US","RA_OF_ASC_NODE":"18.1611","ECCENTRICITY":"0.00013930","ARG_OF_PERICENTER":"63.4428"},{"CLASSIFICATION_TYPE":"U","MEAN_MOTION":"15.08839767","PERIOD":"95.438","OBJECT_ID":"2021-115F","PERIAPSIS":"538.506","OBJECT_NAME":"STARLINK-3251","MEAN_MOTION_DOT":"0.00000717","MEAN_ANOMALY":"276.1291","RCS_SIZE":"LARGE","REV_AT_EPOCH":"3433","GP_ID":"208271787","EPOCH":"2022-07-16T21:08:17.461824","SEMIMAJOR_AXIS":"6917.881","INCLINATION":"53.2184","CENTER_NAME":"EARTH","SITE":"AFETR","REF_FRAME":"TEME","BSTAR":"0.00006313400000","EPHEMERIS_TYPE":"0","APOAPSIS":"540.986","OBJECT_TYPE":"PAYLOAD","RA_OF_ASC_NODE":"17.8528","ECCENTRICITY":"0.00017930","ARG_OF_PERICENTER":"83.9906","COUNTRY_CODE":"US","TIME_SYSTEM":"UTC","LAUNCH_DATE":"2021-12-02","TLE_LINE2":"2 49729  53.2184  17.8528 0001793  83.9906 276.1291 15.08839767 34337","MEAN_ELEMENT_THEORY":"SGP4","MEAN_MOTION_DDOT":"0.0000000000000","FILE":"3515618","ELEMENT_SET_NO":"999","NORAD_CAT_ID":"49729","DECAY_DATE":null,"TLE_LINE1":"1 49729U 21115F   22197.88075766  .00000717  00000-0  63134-4 0  9995"},{"OBJECT_TYPE":"PAYLOAD","EPHEMERIS_TYPE":"0","BSTAR":"0.00011365000000","APOAPSIS":"540.570","REF_FRAME":"TEME","CENTER_NAME":"EARTH","INCLINATION":"53.2162","SITE":"AFETR","GP_ID":"208273038","EPOCH":"2022-07-16T21:18:52.649568","SEMIMAJOR_AXIS":"6917.869","MEAN_MOTION_DOT":"0.00001522","MEAN_ANOMALY":"286.0638","RCS_SIZE":"LARGE","REV_AT_EPOCH":"3433","PERIAPSIS":"538.898","OBJECT_NAME":"STARLINK-3249","CLASSIFICATION_TYPE":"U","MEAN_MOTION":"15.08843752","PERIOD":"95.437","OBJECT_ID":"2021-115G","DECAY_DATE":null,"TLE_LINE1":"1 49730U 21115G   22197.88810937  .00001522  00000-0  11365-3 0  9997","NORAD_CAT_ID":"49730","ELEMENT_SET_NO":"999","MEAN_MOTION_DDOT":"0.0000000000000","FILE":"3515618","TLE_LINE2":"2 49730  53.2162  17.8059 0001209  74.0487 286.0638 15.08843752 34335","MEAN_ELEMENT_THEORY":"SGP4","TIME_SYSTEM":"UTC","LAUNCH_DATE":"2021-12-02","COUNTRY_CODE":"US","RA_OF_ASC_NODE":"17.8059","ECCENTRICITY":"0.00012090","ARG_OF_PERICENTER":"74.0487"},{"DECAY_DATE":null,"TLE_LINE1":"1 49731U 21115H   22197.81819278  .00005705  00000-0  37613-3 0  9999","NORAD_CAT_ID":"49731","ELEMENT_SET_NO":"999","MEAN_MOTION_DDOT":"0.0000000000000","FILE":"3515618","TLE_LINE2":"2 49731  53.2157  18.1269 0001728  70.9723 289.1456 15.08853678 34320","MEAN_ELEMENT_THEORY":"SGP4","TIME_SYSTEM":"UTC","LAUNCH_DATE":"2021-12-02","COUNTRY_CODE":"US","ECCENTRICITY":"0.00017280","RA_OF_ASC_NODE":"18.1269","ARG_OF_PERICENTER":"70.9723","OBJECT_TYPE":"PAYLOAD","BSTAR":"0.00037613000000","EPHEMERIS_TYPE":"0","APOAPSIS":"540.899","REF_FRAME":"TEME","SITE":"AFETR","INCLINATION":"53.2157","CENTER_NAME":"EARTH","EPOCH":"2022-07-16T19:38:11.856192","SEMIMAJOR_AXIS":"6917.839","GP_ID":"208272779","MEAN_ANOMALY":"289.1456","MEAN_MOTION_DOT":"0.00005705","RCS_SIZE":"LARGE","REV_AT_EPOCH":"3432","OBJECT_NAME":"STARLINK-3228","PERIAPSIS":"538.508","OBJECT_ID":"2021-115H","PERIOD":"95.437","CLASSIFICATION_TYPE":"U","MEAN_MOTION":"15.08853678"},{"EPHEMERIS_TYPE":"0","BSTAR":"0.00015369000000","APOAPSIS":"540.820","OBJECT_TYPE":"PAYLOAD","SITE":"AFETR","CENTER_NAME":"EARTH","INCLINATION":"53.2176","REF_FRAME":"TEME","MEAN_MOTION_DOT":"0.00002159","MEAN_ANOMALY":"297.7881","REV_AT_EPOCH":"3432","RCS_SIZE":"LARGE","EPOCH":"2022-07-16T19:59:23.630496","SEMIMAJOR_AXIS":"6917.865","GP_ID":"208271537","PERIOD":"95.437","OBJECT_ID":"2021-115J","CLASSIFICATION_TYPE":"U","MEAN_MOTION":"15.08845000","OBJECT_NAME":"STARLINK-3246","PERIAPSIS":"538.640","NORAD_CAT_ID":"49732","DECAY_DATE":null,"TLE_LINE1":"1 49732U 21115J   22197.83291239  .00002159  00000-0  15369-3 0  9997","MEAN_MOTION_DDOT":"0.0000000000000","FILE":"3515618","ELEMENT_SET_NO":"999","TIME_SYSTEM":"UTC","LAUNCH_DATE":"2021-12-02","TLE_LINE2":"2 49732  53.2176  18.0518 0001576  62.3271 297.7881 15.08845000 34329","MEAN_ELEMENT_THEORY":"SGP4","RA_OF_ASC_NODE":"18.0518","ECCENTRICITY":"0.00015760","ARG_OF_PERICENTER":"62.3271","COUNTRY_CODE":"US"},{"COUNTRY_CODE":"US","ARG_OF_PERICENTER":"78.4653","RA_OF_ASC_NODE":"18.0880","ECCENTRICITY":"0.00014900","MEAN_ELEMENT_THEORY":"SGP4","TLE_LINE2":"2 49733  53.2180  18.0880 0001490  78.4653 281.6506 15.08847213 34328","LAUNCH_DATE":"2021-12-02","TIME_SYSTEM":"UTC","ELEMENT_SET_NO":"999","FILE":"3515618","MEAN_MOTION_DDOT":"0.0000000000000","TLE_LINE1":"1 49733U 21115K   22197.82554882  .00001901  00000-0  13746-3 0  9994","DECAY_DATE":null,"NORAD_CAT_ID":"49733","PERIAPSIS":"538.693","OBJECT_NAME":"STARLINK-3252","MEAN_MOTION":"15.08847213","CLASSIFICATION_TYPE":"U","PERIOD":"95.437","OBJECT_ID":"2021-115K","GP_ID":"208272287","SEMIMAJOR_AXIS":"6917.858","EPOCH":"2022-07-16T19:48:47.418048","RCS_SIZE":"LARGE","REV_AT_EPOCH":"3432","MEAN_MOTION_DOT":"0.00001901","MEAN_ANOMALY":"281.6506","REF_FRAME":"TEME","CENTER_NAME":"EARTH","INCLINATION":"53.2180","SITE":"AFETR","OBJECT_TYPE":"PAYLOAD","APOAPSIS":"540.754","EPHEMERIS_TYPE":"0","BSTAR":"0.00013746000000"},{"OBJECT_NAME":"STARLINK-3238","PERIAPSIS":"538.812","PERIOD":"95.438","OBJECT_ID":"2021-115L","MEAN_MOTION":"15.08837303","CLASSIFICATION_TYPE":"U","SEMIMAJOR_AXIS":"6917.889","EPOCH":"2022-07-16T18:41:14.124480","GP_ID":"208272539","RCS_SIZE":"LARGE","REV_AT_EPOCH":"3446","MEAN_MOTION_DOT":"0.00001584","MEAN_ANOMALY":"292.2038","REF_FRAME":"TEME","SITE":"AFETR","CENTER_NAME":"EARTH","INCLINATION":"53.2199","OBJECT_TYPE":"PAYLOAD","APOAPSIS":"540.695","EPHEMERIS_TYPE":"0","BSTAR":"0.00011759000000","COUNTRY_CODE":"US","ARG_OF_PERICENTER":"67.9098","ECCENTRICITY":"0.00013610","RA_OF_ASC_NODE":"8.3094","MEAN_ELEMENT_THEORY":"SGP4","TLE_LINE2":"2 49734  53.2199   8.3094 0001361  67.9098 292.2038 15.08837303 34463","LAUNCH_DATE":"2021-12-02","TIME_SYSTEM":"UTC","ELEMENT_SET_NO":"999","FILE":"3515618","MEAN_MOTION_DDOT":"0.0000000000000","TLE_LINE1":"1 49734U 21115L   22197.77863570  .00001584  00000-0  11759-3 0  9995","DECAY_DATE":null,"NORAD_CAT_ID":"49734"},{"NORAD_CAT_ID":"49735","TLE_LINE1":"1 49735U 21115M   22197.76299756  .00004294  00000-0  28767-3 0  9992","DECAY_DATE":null,"FILE":"3515618","MEAN_MOTION_DDOT":"0.0000000000000","ELEMENT_SET_NO":"999","LAUNCH_DATE":"2021-12-02","TIME_SYSTEM":"UTC","MEAN_ELEMENT_THEORY":"SGP4","TLE_LINE2":"2 49735  53.2166  18.3650 0001630  70.7296 289.3872 15.08845774 34316","ARG_OF_PERICENTER":"70.7296","ECCENTRICITY":"0.00016300","RA_OF_ASC_NODE":"18.3650","COUNTRY_CODE":"US","APOAPSIS":"540.855","EPHEMERIS_TYPE":"0","BSTAR":"0.00028767000000","OBJECT_TYPE":"PAYLOAD","INCLINATION":"53.2166","CENTER_NAME":"EARTH","SITE":"AFETR","REF_FRAME":"TEME","RCS_SIZE":"LARGE","REV_AT_EPOCH":"3431","MEAN_ANOMALY":"289.3872","MEAN_MOTION_DOT":"0.00004294","GP_ID":"208273279","SEMIMAJOR_AXIS":"6917.863","EPOCH":"2022-07-16T18:18:42.989184","MEAN_MOTION":"15.08845774","CLASSIFICATION_TYPE":"U","PERIOD":"95.437","OBJECT_ID":"2021-115M","PERIAPSIS":"538.600","OBJECT_NAME":"STARLINK-3113"},{"RCS_SIZE":"LARGE","REV_AT_EPOCH":"3447","MEAN_ANOMALY":"291.9814","MEAN_MOTION_DOT":"0.00001500","GP_ID":"208272037","SEMIMAJOR_AXIS":"6917.877","EPOCH":"2022-07-16T20:27:12.988224","MEAN_MOTION":"15.08841161","CLASSIFICATION_TYPE":"U","PERIOD":"95.437","OBJECT_ID":"2021-115N","PERIAPSIS":"538.659","OBJECT_NAME":"STARLINK-3148","APOAPSIS":"540.825","EPHEMERIS_TYPE":"0","BSTAR":"0.00011234000000","OBJECT_TYPE":"PAYLOAD","INCLINATION":"53.2194","CENTER_NAME":"EARTH","SITE":"AFETR","REF_FRAME":"TEME","LAUNCH_DATE":"2021-12-02","TIME_SYSTEM":"UTC","MEAN_ELEMENT_THEORY":"SGP4","TLE_LINE2":"2 49736  53.2194   7.9752 0001566  68.1345 291.9814 15.08841161 34477","ARG_OF_PERICENTER":"68.1345","ECCENTRICITY":"0.00015660","RA_OF_ASC_NODE":"7.9752","COUNTRY_CODE":"US","NORAD_CAT_ID":"49736","TLE_LINE1":"1 49736U 21115N   22197.85223366  .00001500  00000-0  11234-3 0  9995","DECAY_DATE":null,"FILE":"3515618","MEAN_MOTION_DDOT":"0.0000000000000","ELEMENT_SET_NO":"999"},{"COUNTRY_CODE":"US","ARG_OF_PERICENTER":"65.4401","ECCENTRICITY":"0.00014210","RA_OF_ASC_NODE":"7.9961","MEAN_ELEMENT_THEORY":"SGP4","TLE_LINE2":"2 49737  53.2185   7.9961 0001421  65.4401 294.6739 15.08835426 34476","LAUNCH_DATE":"2021-12-02","TIME_SYSTEM":"UTC","ELEMENT_SET_NO":"999","FILE":"3515618","MEAN_MOTION_DDOT":"0.0000000000000","TLE_LINE1":"1 49737U 21115P   22197.84855730  .00003189  00000-0  21842-3 0  9992","DECAY_DATE":null,"NORAD_CAT_ID":"49737","PERIAPSIS":"538.776","OBJECT_NAME":"STARLINK-3225","MEAN_MOTION":"15.08835426","CLASSIFICATION_TYPE":"U","OBJECT_ID":"2021-115P","PERIOD":"95.438","GP_ID":"208271788","SEMIMAJOR_AXIS":"6917.894","EPOCH":"2022-07-16T20:21:55.350720","RCS_SIZE":"LARGE","REV_AT_EPOCH":"3447","MEAN_MOTION_DOT":"0.00003189","MEAN_ANOMALY":"294.6739","REF_FRAME":"TEME","CENTER_NAME":"EARTH","INCLINATION":"53.2185","SITE":"AFETR","OBJECT_TYPE":"PAYLOAD","APOAPSIS":"540.742","BSTAR":"0.00021842000000","EPHEMERIS_TYPE":"0"}];
